{
  "type": "FeatureCollection",
  "features": [
    {
      "type": "Feature",
      "properties": {
        "norad_id": 30826,
        "name": "FENGYUN 1C DEB",
        "group": "fengyun-1c-debris",
        "lat": -13.235970635237175,
        "lon": -10.730079364277115,
        "alt_km": 726.8362852955679,
        "timestamp": "2025-12-03T08:58:46.280452+00:00",
        "meta_object_name": "FENGYUN 1C DEB",
        "meta_object_id": "1999-025AVL",
        "meta_epoch": "2025-12-03T00:41:10.169088",
        "meta_mean_motion": 14.82089912,
        "meta_eccentricity": 0.0146157,
        "meta_inclination": 98.8674,
        "meta_ra_of_asc_node": 170.9917,
        "meta_arg_of_pericenter": 27.5432,
        "meta_mean_anomaly": 122.7168,
        "meta_ephemeris_type": 0,
        "meta_classification_type": "U",
        "meta_norad_cat_id": 30826,
        "meta_element_set_no": 999,
        "meta_rev_at_epoch": 142,
        "meta_bstar": 0.00059765,
        "meta_mean_motion_dot": 5.653e-05,
        "meta_mean_motion_ddot": 0,
        "tle_line1": "1 30826U 99025AVL 25337.02858992  .00005653  00000+0  59765-3 0  9990",
        "tle_line2": "2 30826  98.8674 170.9917 0146157  27.5432 122.7168 14.82089912  1422"
      },
      "geometry": {
        "type": "Point",
        "coordinates": [
          -10.730079364277115,
          -13.235970635237175
        ]
      }
    },
    {
      "type": "Feature",
      "properties": {
        "norad_id": 30827,
        "name": "FENGYUN 1C DEB",
        "group": "fengyun-1c-debris",
        "lat": 42.43527138063302,
        "lon": -45.98217678967788,
        "alt_km": 792.9713563464702,
        "timestamp": "2025-12-03T08:58:46.280462+00:00",
        "meta_object_name": "FENGYUN 1C DEB",
        "meta_object_id": "1999-025AVM",
        "meta_epoch": "2025-11-28T16:51:08.077248",
        "meta_mean_motion": 14.37451218,
        "meta_eccentricity": 0.00433791,
        "meta_inclination": 99.0039,
        "meta_ra_of_asc_node": 317.4637,
        "meta_arg_of_pericenter": 221.0833,
        "meta_mean_anomaly": 138.7083,
        "meta_ephemeris_type": 0,
        "meta_classification_type": "U",
        "meta_norad_cat_id": 30827,
        "meta_element_set_no": 999,
        "meta_rev_at_epoch": 96347,
        "meta_bstar": 0.0026034471,
        "meta_mean_motion_dot": 7.833e-05,
        "meta_mean_motion_ddot": 0,
        "tle_line1": "1 30827U 99025AVM 25332.70217682  .00007833  00000+0  26034-2 0  9990",
        "tle_line2": "2 30827  99.0039 317.4637 0043379 221.0833 138.7083 14.37451218963473"
      },
      "geometry": {
        "type": "Point",
        "coordinates": [
          -45.98217678967788,
          42.43527138063302
        ]
      }
    },
    {
      "type": "Feature",
      "properties": {
        "norad_id": 30828,
        "name": "FENGYUN 1C DEB",
        "group": "fengyun-1c-debris",
        "lat": -7.790635349613655,
        "lon": -97.17222656629612,
        "alt_km": 506.06406574389166,
        "timestamp": "2025-12-03T08:58:46.280473+00:00",
        "meta_object_name": "FENGYUN 1C DEB",
        "meta_object_id": "1999-025AVN",
        "meta_epoch": "2025-12-02T12:53:36.080160",
        "meta_mean_motion": 14.76418196,
        "meta_eccentricity": 0.02104459,
        "meta_inclination": 98.3765,
        "meta_ra_of_asc_node": 83.1145,
        "meta_arg_of_pericenter": 211.2329,
        "meta_mean_anomaly": 211.6315,
        "meta_ephemeris_type": 0,
        "meta_classification_type": "U",
        "meta_norad_cat_id": 30828,
        "meta_element_set_no": 999,
        "meta_rev_at_epoch": 98506,
        "meta_bstar": 0.0024792056,
        "meta_mean_motion_dot": 0.00024862,
        "meta_mean_motion_ddot": 0,
        "tle_line1": "1 30828U 99025AVN 25336.53722315  .00024862  00000+0  24792-2 0  9990",
        "tle_line2": "2 30828  98.3765  83.1145 0210445 211.2329 211.6315 14.76418196985063"
      },
      "geometry": {
        "type": "Point",
        "coordinates": [
          -97.17222656629612,
          -7.790635349613655
        ]
      }
    },
    {
      "type": "Feature",
      "properties": {
        "norad_id": 30829,
        "name": "FENGYUN 1C DEB",
        "group": "fengyun-1c-debris",
        "lat": 3.3809319017794617,
        "lon": -30.25469812898676,
        "alt_km": 840.0141009969448,
        "timestamp": "2025-12-03T08:58:46.280483+00:00",
        "meta_object_name": "FENGYUN 1C DEB",
        "meta_object_id": "1999-025AVP",
        "meta_epoch": "2025-11-24T16:59:09.368448",
        "meta_mean_motion": 14.0861447,
        "meta_eccentricity": 0.00366216,
        "meta_inclination": 98.7745,
        "meta_ra_of_asc_node": 321.8365,
        "meta_arg_of_pericenter": 25.1121,
        "meta_mean_anomaly": 335.182,
        "meta_ephemeris_type": 0,
        "meta_classification_type": "U",
        "meta_norad_cat_id": 30829,
        "meta_element_set_no": 999,
        "meta_rev_at_epoch": 96179,
        "meta_bstar": 0.00055259552,
        "meta_mean_motion_dot": 9.13e-06,
        "meta_mean_motion_ddot": 0,
        "tle_line1": "1 30829U 99025AVP 25328.70774732  .00000913  00000+0  55260-3 0  9997",
        "tle_line2": "2 30829  98.7745 321.8365 0036621  25.1121 335.1820 14.08614470961791"
      },
      "geometry": {
        "type": "Point",
        "coordinates": [
          -30.25469812898676,
          3.3809319017794617
        ]
      }
    },
    {
      "type": "Feature",
      "properties": {
        "norad_id": 30830,
        "name": "FENGYUN 1C DEB",
        "group": "fengyun-1c-debris",
        "lat": 79.45316706366356,
        "lon": -158.37289139241136,
        "alt_km": 855.2957566356881,
        "timestamp": "2025-12-03T08:58:46.280494+00:00",
        "meta_object_name": "FENGYUN 1C DEB",
        "meta_object_id": "1999-025AVQ",
        "meta_epoch": "2025-12-02T22:35:04.933248",
        "meta_mean_motion": 14.12213433,
        "meta_eccentricity": 0.0030276,
        "meta_inclination": 98.7289,
        "meta_ra_of_asc_node": 325.5992,
        "meta_arg_of_pericenter": 217.1067,
        "meta_mean_anomaly": 198.3932,
        "meta_ephemeris_type": 0,
        "meta_classification_type": "U",
        "meta_norad_cat_id": 30830,
        "meta_element_set_no": 999,
        "meta_rev_at_epoch": 96461,
        "meta_bstar": 0.00033835,
        "meta_mean_motion_dot": 5.81e-06,
        "meta_mean_motion_ddot": 0,
        "tle_line1": "1 30830U 99025AVQ 25336.94102932  .00000581  00000+0  33835-3 0  9996",
        "tle_line2": "2 30830  98.7289 325.5992 0030276 217.1067 198.3932 14.12213433964611"
      },
      "geometry": {
        "type": "Point",
        "coordinates": [
          -158.37289139241136,
          79.45316706366356
        ]
      }
    },
    {
      "type": "Feature",
      "properties": {
        "norad_id": 30831,
        "name": "FENGYUN 1C DEB",
        "group": "fengyun-1c-debris",
        "lat": 23.08928646945394,
        "lon": 125.43458892702554,
        "alt_km": 755.8436459322238,
        "timestamp": "2025-12-03T08:58:46.280510+00:00",
        "meta_object_name": "FENGYUN 1C DEB",
        "meta_object_id": "1999-025AVR",
        "meta_epoch": "2025-12-03T03:50:13.803936",
        "meta_mean_motion": 14.31051845,
        "meta_eccentricity": 0.0055821,
        "meta_inclination": 99.3277,
        "meta_ra_of_asc_node": 129.2227,
        "meta_arg_of_pericenter": 61.5201,
        "meta_mean_anomaly": 299.1586,
        "meta_ephemeris_type": 0,
        "meta_classification_type": "U",
        "meta_norad_cat_id": 30831,
        "meta_element_set_no": 999,
        "meta_rev_at_epoch": 65113,
        "meta_bstar": 0.0005463,
        "meta_mean_motion_dot": 1.414e-05,
        "meta_mean_motion_ddot": 0,
        "tle_line1": "1 30831U 99025AVR 25337.15988199  .00001414  00000+0  54630-3 0  9990",
        "tle_line2": "2 30831  99.3277 129.2227 0055821  61.5201 299.1586 14.31051845651133"
      },
      "geometry": {
        "type": "Point",
        "coordinates": [
          125.43458892702554,
          23.08928646945394
        ]
      }
    },
    {
      "type": "Feature",
      "properties": {
        "norad_id": 30833,
        "name": "FENGYUN 1C DEB",
        "group": "fengyun-1c-debris",
        "lat": -8.683467561587813,
        "lon": -59.2252221301423,
        "alt_km": 784.2721197716573,
        "timestamp": "2025-12-03T08:58:46.280523+00:00",
        "meta_object_name": "FENGYUN 1C DEB",
        "meta_object_id": "1999-025AVT",
        "meta_epoch": "2025-11-30T16:08:15.979488",
        "meta_mean_motion": 14.26699546,
        "meta_eccentricity": 0.00328082,
        "meta_inclination": 99.8434,
        "meta_ra_of_asc_node": 119.2595,
        "meta_arg_of_pericenter": 214.1796,
        "meta_mean_anomaly": 145.7269,
        "meta_ephemeris_type": 0,
        "meta_classification_type": "U",
        "meta_norad_cat_id": 30833,
        "meta_element_set_no": 999,
        "meta_rev_at_epoch": 64239,
        "meta_bstar": 0.00062547884,
        "meta_mean_motion_dot": 1.467e-05,
        "meta_mean_motion_ddot": 0,
        "tle_line1": "1 30833U 99025AVT 25334.67240717  .00001467  00000+0  62548-3 0  9998",
        "tle_line2": "2 30833  99.8434 119.2595 0032808 214.1796 145.7269 14.26699546642399"
      },
      "geometry": {
        "type": "Point",
        "coordinates": [
          -59.2252221301423,
          -8.683467561587813
        ]
      }
    }
  ]
}